NORAD_CAT_ID,OBJECT_NAME,OBJECT_TYPE,EPOCH,MEAN_MOTION,ECCENTRICITY,INCLINATION,RA_OF_ASC_NODE,ARG_OF_PERICENTER,MEAN_ANOMALY,BSTAR,MEAN_MOTION_DOT,MEAN_MOTION_DDOT,TLE_LINE0,TLE_LINE1,TLE_LINE2,SEMIMAJOR_AXIS,PERIOD,APOGEE,PERIGEE,DECAYED
53404.0,STARLINK-4509,PAYLOAD,2022-08-15 18:00:00,15.85479423,0.0020027,53.2175,220.7618,52.8664,10.3418,-0.0052222,-0.0115281,0.0,0 STARLINK-4509,1 53404U 22097S   22227.75001157 -.01152810  00000-0 -52222-2 0  9992,2 53404  53.2175 220.7618 0020027  52.8664  10.3418 15.85479423  1308,6693.111999999999,90.824,328.381,301.573,0.0
53404.0,STARLINK-4509,PAYLOAD,2022-08-16 06:00:02,15.84185701,0.0015642,53.2175,218.2458,50.7598,346.8825,-0.0056684,-0.01163131,0.0,0 STARLINK-4509,1 53404U 22097S   22228.25002315 -.01163131  00000-0 -56684-2 0  9999,2 53404  53.2175 218.2458 0015642  50.7598 346.8825 15.84185701  1370,6696.755999999999,90.898,329.096,308.146,0.0
53404.0,STARLINK-4509,PAYLOAD,2022-08-16 14:00:01,15.83320843,0.001204,53.2173,216.5698,49.08,90.1065,-0.0059586,-0.01187288,0.0,0 STARLINK-4509,1 53404U 22097S   22228.58334491 -.01187288  00000-0 -59586-2 0  9991,2 53404  53.2173 216.5698 0012040  49.0800  90.1065 15.83320843  1306,6699.194,90.948,329.125,312.993,0.0
53404.0,STARLINK-4509,PAYLOAD,2022-08-16 22:00:00,15.82477162,0.0009251,53.2173,214.895,47.5854,192.1613,-0.0064563999999999,-0.01226647,0.0,0 STARLINK-4509,1 53404U 22097S   22228.91667824 -.01226647  00000-0 -64564-2 0  9992,2 53404  53.2173 214.8950 0009251  47.5854 192.1613 15.82477162  1487,6701.575,90.997,329.639,317.24,0.0
53404.0,STARLINK-4509,PAYLOAD,2022-08-17 14:00:01,15.80716183,0.0004424999999999,53.2173,211.5562,19.6377,58.1236,-0.0067578999999999,-0.01181992,0.0,0 STARLINK-4509,1 53404U 22097S   22229.58334491 -.01181992  00000-0 -67579-2 0  9999,2 53404  53.2173 211.5562 0004425  19.6377  58.1236 15.80716183  1308,6706.551,91.098,331.384,325.449,0.0
53404.0,STARLINK-4509,PAYLOAD,2022-08-18 08:00:01,15.78831247,0.0003217,53.2182,207.8095,356.7875,28.7113,-0.0080115,-0.0127152,0.0,0 STARLINK-4509,1 53404U 22097S   22230.33334491 -.01271520  00000-0 -80115-2 0  9992,2 53404  53.2182 207.8095 0003217 356.7875  28.7113 15.78831247  1700,6711.888000000001,91.207,335.912,331.594,0.0
53404.0,STARLINK-4509,PAYLOAD,2022-08-18 14:00:01,15.78159978,0.0003387,53.2174,206.5616,350.2907,16.6364,-0.0080753,-0.01246476,0.0,0 STARLINK-4509,1 53404U 22097S   22230.58334491 -.01246476  00000-0 -80753-2 0  9999,2 53404  53.2174 206.5616 0003387 350.2907  16.6364 15.78159978  1303,6713.791,91.246,337.93,333.38199999999995,0.0
53404.0,STARLINK-4509,PAYLOAD,2022-08-18 22:00:00,15.772523199999998,0.0003618999999999,53.2175,204.8999,3.7561,97.499,-0.0079992,-0.0119208,0.0,0 STARLINK-4509,1 53404U 22097S   22230.91667824 -.01192080  00000-0 -79992-2 0  9999,2 53404  53.2175 204.8999 0003619   3.7561  97.4990 15.77252320  1309,6716.3669999999975,91.298,340.662,335.801,0.0
53404.0,STARLINK-4509,PAYLOAD,2022-08-19 14:00:01,15.755124100000002,5.610000000000002e-05,53.2174,201.5864,9.9376,276.8093,-0.008596,-0.01184418,0.0,0 STARLINK-4509,1 53404U 22097S   22231.58334491 -.01184418  00000-0 -85960-2 0  9992,2 53404  53.2174 201.5864 0000561   9.9376 276.8093 15.75512410  1302,6721.31,91.399,343.55300000000005,342.798,0.0
53404.0,STARLINK-4509,PAYLOAD,2022-08-19 16:00:00,15.75300457,8.71e-05,53.2176,201.1722,39.9291,359.709,-0.0087401,-0.01192211,0.0,0 STARLINK-4509,1 53404U 22097S   22231.66667824 -.01192211  00000-0 -87401-2 0  9992,2 53404  53.2176 201.1722 0000871  39.9291 359.7090 15.75300457  1917,6721.913000000001,91.411,344.36400000000015,343.1930000000001,0.0
53404.0,STARLINK-4509,PAYLOAD,2022-08-19 22:00:00,15.7464718,0.0001082999999999,53.2177,199.9312,48.9067,329.019,-0.008966,-0.01188897,0.0,0 STARLINK-4509,1 53404U 22097S   22231.91667824 -.01188897  00000-0 -89660-2 0  9994,2 53404  53.2177 199.9312 0001083  48.9067 329.0190 15.74647180  1304,6723.772,91.449,346.366,344.909,0.0
53404.0,STARLINK-4509,PAYLOAD,2022-08-20 08:00:01,15.73469233,0.0001195,53.2176,197.8689,50.4843,169.96099999999996,-0.0027338,-0.00372079,0.0,0 STARLINK-4509,1 53404U 22097S   22232.33334491 -.00372079  00000-0 -27338-2 0  9992,2 53404  53.2176 197.8689 0001195  50.4843 169.9610 15.73469233  2029,6727.128000000002,91.518,349.797,348.189,0.0
53404.0,STARLINK-4509,PAYLOAD,2022-08-20 14:00:01,15.73207163,0.0001115,53.2172,196.6301,69.1896,128.107,-4.3396e-05,-6.707e-05,0.0,0 STARLINK-4509,1 53404U 22097S   22232.58334491 -.00006707  00000-0 -43396-4 0  9995,2 53404  53.2172 196.6301 0001115  69.1896 128.1070 15.73207163  1309,6727.875,91.533,350.49,348.99,0.0
53404.0,STARLINK-4509,PAYLOAD,2022-08-20 22:00:00,15.73203976,0.0001151,53.2175,194.9796,72.7931,213.4389,1.2678e-05,1.16e-05,0.0,0 STARLINK-4509,1 53404U 22097S   22232.91667824  .00001160  00000-0  12678-4 0  9996,2 53404  53.2175 194.9796 0001151  72.7931 213.4389 15.73203976  1300,6727.884,91.533,350.523,348.974,0.0
53404.0,STARLINK-4509,PAYLOAD,2022-08-21 06:00:00,15.7319898,0.0001659,53.2192,193.3337,73.6882,301.2972,0.00034106,0.00047515,0.0,0 STARLINK-4509,1 53404U 22097S   22233.25001157  .00047515  00000-0  34106-3 0  9998,2 53404  53.2192 193.3337 0001659  73.6882 301.2972 15.73198980  2168,6727.898,91.533,350.879,348.647,0.0
53404.0,STARLINK-4509,PAYLOAD,2022-08-21 14:00:01,15.73271853,0.0001508,53.2193,191.6829,77.0257,26.9233,3.5094e-06,-1.27e-06,0.0,0 STARLINK-4509,1 53404U 22097S   22233.58334491 -.00000127  00000-0  35094-5 0  9992,2 53404  53.2193 191.6829 0001508  77.0257  26.9233 15.73271853  1300,6727.69,91.529,350.57,348.541,0.0
53404.0,STARLINK-4509,PAYLOAD,2022-08-21 22:00:00,15.73266761,0.0001437,53.2196,190.0328,81.1813,111.7655,-0.00025646,-0.0003656,0.0,0 STARLINK-4509,1 53404U 22097S   22233.91667824 -.00036560  00000-0 -25646-3 0  9999,2 53404  53.2196 190.0328 0001437  81.1813 111.7655 15.73266761  1308,6727.705,91.529,350.537,348.603,0.0
53404.0,STARLINK-4509,PAYLOAD,2022-08-22 06:00:00,15.73250138,0.0001344,53.2194,188.3852,69.8019,212.1344,-0.00017975,-0.00025824,0.0,0 STARLINK-4509,1 53404U 22097S   22234.25001157 -.00025824  00000-0 -17975-3 0  9995,2 53404  53.2194 188.3852 0001344  69.8019 212.1344 15.73250138  2321,6727.752,91.53,350.521,348.713,0.0
53404.0,STARLINK-4509,PAYLOAD,2022-08-22 12:00:00,15.73227352,0.0001181,53.2188,187.1472,70.8359,187.8283,-0.00020057,-0.00028705,0.0,0 STARLINK-4509,1 53404U 22097S   22234.50001157 -.00028705  00000-0 -20057-3 0  9999,2 53404  53.2188 187.1472 0001181  70.8359 187.8283 15.73227352  1306,6727.816999999999,91.532,350.477,348.88800000000015,0.0
53404.0,STARLINK-4509,PAYLOAD,2022-08-22 22:00:00,15.7325636,0.0001216,53.2193,185.0846,82.6812,17.1533,-0.00042463,-0.00059933,0.0,0 STARLINK-4509,1 53404U 22097S   22234.91667824 -.00059933  00000-0 -42463-3 0  9995,2 53404  53.2193 185.0846 0001216  82.6812  17.1533 15.73256360  1302,6727.734,91.53,350.418,348.781,0.0
53404.0,STARLINK-4509,PAYLOAD,2022-08-23 14:00:01,15.73217792,0.0001163,53.2197,181.7861,78.3601,199.3612,-0.00058514,-0.00082005,0.0,0 STARLINK-4509,1 53404U 22097S   22235.58334491 -.00082005  00000-0 -58514-3 0  9990,2 53404  53.2197 181.7861 0001163  78.3601 199.3612 15.73217792  2538,6727.844,91.532,350.492,348.927,0.0
53404.0,STARLINK-4509,PAYLOAD,2022-08-23 22:00:01,15.73175187,0.0001135,53.2201,180.1365,80.4002,286.2847,8.4248e-05,0.00011207,0.0,0 STARLINK-4509,1 53404U 22097S   22235.91668981  .00011207  00000-0  84248-4 0  9999,2 53404  53.2201 180.1365 0001135  80.4002 286.2847 15.73175187  1305,6727.965999999999,91.535,350.595,349.06699999999995,0.0
53404.0,STARLINK-4509,PAYLOAD,2022-08-24 06:00:00,15.73155687,0.0001197,53.22,178.4892,68.1709,27.3555,0.00044418,0.0006206,0.0,0 STARLINK-4509,1 53404U 22097S   22236.25001157  .00062060  00000-0  44418-3 0  9990,2 53404  53.2200 178.4892 0001197  68.1709  27.3555 15.73155687  2645,6728.022,91.536,350.69199999999995,349.081,0.0
53404.0,STARLINK-4509,PAYLOAD,2022-08-24 14:00:01,15.73203077,0.0001082999999999,53.2199,176.8381,77.4093,107.0299,0.00012365,0.0001676999999999,0.0,0 STARLINK-4509,1 53404U 22097S   22236.58334491  .00016770  00000-0  12365-3 0  9999,2 53404  53.2199 176.8381 0001083  77.4093 107.0299 15.73203077  1300,6727.886,91.533,350.48,349.023,0.0
53404.0,STARLINK-4509,PAYLOAD,2022-08-24 22:00:00,15.73238634,0.0001105,53.22,175.1889,84.0801,189.2938,8.9106e-05,0.00011924,0.0,0 STARLINK-4509,1 53404U 22097S   22236.91667824  .00011924  00000-0  89106-4 0  9999,2 53404  53.2200 175.1889 0001105  84.0801 189.2938 15.73238634  1303,6727.785,91.531,350.39300000000014,348.907,0.0
53404.0,STARLINK-4509,PAYLOAD,2022-08-25 06:00:02,15.73237542,0.0001217,53.2201,173.5413,70.9036,291.5127,0.00013484,0.00018375,0.0,0 STARLINK-4509,1 53404U 22097S   22237.25002315  .00018375  00000-0  13484-3 0  9997,2 53404  53.2201 173.5413 0001217  70.9036 291.5127 15.73237542  2795,6727.788000000001,91.531,350.472,348.834,0.0
53404.0,STARLINK-4509,PAYLOAD,2022-08-25 14:00:01,15.73208168,0.0001227,53.2206,171.89,81.2553,10.0887,5.5982000000000024e-08,-6.12e-06,0.0,0 STARLINK-4509,1 53404U 22097S   22237.58334491 -.00000612  00000-0  55982-7 0  9995,2 53404  53.2206 171.8900 0001227  81.2553  10.0887 15.73208168  2858,6727.871999999999,91.533,350.56199999999984,348.911,0.0
53404.0,STARLINK-4509,PAYLOAD,2022-08-25 22:00:00,15.732535,0.000134,53.2209,170.2407,84.3538,95.9289,-0.00031074,-0.00044102,0.0,0 STARLINK-4509,1 53404U 22097S   22237.91667824 -.00044102  00000-0 -31074-3 0  9996,2 53404  53.2209 170.2407 0001340  84.3538  95.9289 15.73253500  1306,6727.743,91.53,350.509,348.706,0.0
53404.0,STARLINK-4509,PAYLOAD,2022-08-26 14:00:01,15.7319288,0.0001051,53.2207,166.9418,83.2132,275.0473,0.00032155,0.00044734,0.0,0 STARLINK-4509,1 53404U 22097S   22238.58335648  .00044734  00000-0  32155-3 0  9996,2 53404  53.2207 166.9418 0001051  83.2132 275.0473 15.73192880  1304,6727.915,91.534,350.48800000000006,349.0730000000001,0.0
